SORCE                   
1 27651U 03004A   26068.43340162  .00003920  00000+0  29573-3 0  9995
2 27651  39.9899 110.5611 0015930  53.0009 307.2241 15.03094555256885
STARLINK-5671           
1 55339U 23013J   26067.00413173  .00000334  00000+0  39786-4 0  9990
2 55339  43.0043 309.6840 0001158 266.2254  93.8456 15.02536737171455
